start=new Date('2022-01-30T00:00:00.000Z').valueOf();
sats=[{"MEAN_MOTION_DDOT":"0.0000000000000","MEAN_ANOMALY":"290.7026","PERIOD":"95.591","DECAY_DATE":null,"PERIAPSIS":"546.280","MEAN_ELEMENT_THEORY":"SGP4","INCLINATION":"53.0559","TLE_LINE2":"2 48448  53.0559  74.6967 0001294  69.4101 290.7026 15.06412113 40568","EPHEMERIS_TYPE":"0","NORAD_CAT_ID":"48448","OBJECT_ID":"2021-040W","ELEMENT_SET_NO":"999","FILE":"3287083","BSTAR":"0.00056037000000","TLE_LINE1":"1 48448U 21040W   22029.84231443  .00008078  00000-0  56037-3 0  9996","OBJECT_TYPE":"PAYLOAD","MEAN_MOTION":"15.06412113","GP_ID":"194914473","LAUNCH_DATE":"2021-05-09","REF_FRAME":"TEME","SITE":"AFETR","SEMIMAJOR_AXIS":"6925.311","OBJECT_NAME":"STARLINK-2632","RA_OF_ASC_NODE":"74.6967","CENTER_NAME":"EARTH","ARG_OF_PERICENTER":"69.4101","TIME_SYSTEM":"UTC","REV_AT_EPOCH":"4056","RCS_SIZE":"LARGE","EPOCH":"2022-01-29T20:12:55.966752","ECCENTRICITY":"0.00012940","APOAPSIS":"548.073","CLASSIFICATION_TYPE":"U","MEAN_MOTION_DOT":"0.00008078","COUNTRY_CODE":"US"},{"INCLINATION":"53.0566","PERIAPSIS":"546.157","MEAN_ELEMENT_THEORY":"SGP4","DECAY_DATE":null,"PERIOD":"95.593","MEAN_ANOMALY":"288.9465","MEAN_MOTION_DDOT":"0.0000000000000","NORAD_CAT_ID":"48449","EPHEMERIS_TYPE":"0","TLE_LINE2":"2 48449  53.0566  74.8238 0001552  71.1692 288.9465 15.06393893 40561","OBJECT_TYPE":"PAYLOAD","MEAN_MOTION":"15.06393893","TLE_LINE1":"1 48449U 21040X   22029.81376884 -.00000294  00000-0 -85026-6 0  9990","FILE":"3287083","BSTAR":"-0.00000085026000","ELEMENT_SET_NO":"999","OBJECT_ID":"2021-040X","SEMIMAJOR_AXIS":"6925.367","SITE":"AFETR","OBJECT_NAME":"STARLINK-2655","REF_FRAME":"TEME","LAUNCH_DATE":"2021-05-09","GP_ID":"194912721","CENTER_NAME":"EARTH","RA_OF_ASC_NODE":"74.8238","RCS_SIZE":"LARGE","REV_AT_EPOCH":"4056","TIME_SYSTEM":"UTC","ARG_OF_PERICENTER":"71.1692","CLASSIFICATION_TYPE":"U","APOAPSIS":"548.307","ECCENTRICITY":"0.00015520","EPOCH":"2022-01-29T19:31:49.627776","COUNTRY_CODE":"US","MEAN_MOTION_DOT":"-0.00000294"},{"ARG_OF_PERICENTER":"62.7962","TIME_SYSTEM":"UTC","REV_AT_EPOCH":"4056","RCS_SIZE":"LARGE","RA_OF_ASC_NODE":"74.8332","CENTER_NAME":"EARTH","COUNTRY_CODE":"US","MEAN_MOTION_DOT":"0.00000350","APOAPSIS":"548.313","ECCENTRICITY":"0.00015650","CLASSIFICATION_TYPE":"U","EPOCH":"2022-01-29T19:26:31.740576","TLE_LINE2":"2 48450  53.0559  74.8332 0001565  62.7962 297.3186 15.06395012 40569","EPHEMERIS_TYPE":"0","NORAD_CAT_ID":"48450","PERIOD":"95.592","MEAN_ANOMALY":"297.3186","DECAY_DATE":null,"PERIAPSIS":"546.145","MEAN_ELEMENT_THEORY":"SGP4","INCLINATION":"53.0559","MEAN_MOTION_DDOT":"0.0000000000000","OBJECT_NAME":"STARLINK-2660","SITE":"AFETR","SEMIMAJOR_AXIS":"6925.364","REF_FRAME":"TEME","GP_ID":"194912972","LAUNCH_DATE":"2021-05-09","BSTAR":"0.00004237100000","FILE":"3287083","TLE_LINE1":"1 48450U 21040Y   22029.81008959  .00000350  00000-0  42371-4 0  9992","OBJECT_TYPE":"PAYLOAD","MEAN_MOTION":"15.06395012","OBJECT_ID":"2021-040Y","ELEMENT_SET_NO":"999"},{"TIME_SYSTEM":"UTC","ARG_OF_PERICENTER":"78.3296","RCS_SIZE":"LARGE","REV_AT_EPOCH":"4050","RA_OF_ASC_NODE":"76.6440","CENTER_NAME":"EARTH","COUNTRY_CODE":"US","MEAN_MOTION_DOT":"-0.00000672","APOAPSIS":"548.211","ECCENTRICITY":"0.00014340","CLASSIFICATION_TYPE":"U","EPOCH":"2022-01-29T09:47:59.071776","NORAD_CAT_ID":"48451","TLE_LINE2":"2 48451  53.0563  76.6440 0001434  78.3296 281.7854 15.06398688 40508","EPHEMERIS_TYPE":"0","DECAY_DATE":null,"MEAN_ANOMALY":"281.7854","PERIOD":"95.592","INCLINATION":"53.0563","PERIAPSIS":"546.224","MEAN_ELEMENT_THEORY":"SGP4","MEAN_MOTION_DDOT":"0.0000000000000","SITE":"AFETR","SEMIMAJOR_AXIS":"6925.353","OBJECT_NAME":"STARLINK-2652","REF_FRAME":"TEME","LAUNCH_DATE":"2021-05-09","GP_ID":"194884707","BSTAR":"-0.00002624500000","FILE":"3286885","OBJECT_TYPE":"PAYLOAD","MEAN_MOTION":"15.06398688","TLE_LINE1":"1 48451U 21040Z   22029.40832259 -.00000672  00000-0 -26245-4 0  9997","OBJECT_ID":"2021-040Z","ELEMENT_SET_NO":"999"},{"MEAN_MOTION_DDOT":"0.0000000000000","MEAN_ELEMENT_THEORY":"SGP4","PERIAPSIS":"546.259","INCLINATION":"53.0562","MEAN_ANOMALY":"287.4935","PERIOD":"95.592","DECAY_DATE":null,"EPHEMERIS_TYPE":"0","TLE_LINE2":"2 48452  53.0562  74.8399 0001341  72.6201 287.4935 15.06408488 40560","NORAD_CAT_ID":"48452","ELEMENT_SET_NO":"999","OBJECT_ID":"2021-040AA","TLE_LINE1":"1 48452U 21040AA  22029.80913846 -.00000492  00000-0 -14101-4 0  9992","OBJECT_TYPE":"PAYLOAD","MEAN_MOTION":"15.06408488","BSTAR":"-0.00001410100000","FILE":"3287083","GP_ID":"194913974","LAUNCH_DATE":"2021-05-09","OBJECT_NAME":"STARLINK-2703","SITE":"AFETR","SEMIMAJOR_AXIS":"6925.323","REF_FRAME":"TEME","CENTER_NAME":"EARTH","RA_OF_ASC_NODE":"74.8399","REV_AT_EPOCH":"4056","RCS_SIZE":"LARGE","ARG_OF_PERICENTER":"72.6201","TIME_SYSTEM":"UTC","EPOCH":"2022-01-29T19:25:09.562944","CLASSIFICATION_TYPE":"U","APOAPSIS":"548.116","ECCENTRICITY":"0.00013410","MEAN_MOTION_DOT":"-0.00000492","COUNTRY_CODE":"US"},{"CLASSIFICATION_TYPE":"U","ECCENTRICITY":"0.00015020","APOAPSIS":"548.250","EPOCH":"2022-01-29T12:53:44.789280","COUNTRY_CODE":"US","MEAN_MOTION_DOT":"-0.00000162","CENTER_NAME":"EARTH","RA_OF_ASC_NODE":"76.0522","REV_AT_EPOCH":"4180","RCS_SIZE":"LARGE","ARG_OF_PERICENTER":"72.8877","TIME_SYSTEM":"UTC","TLE_LINE1":"1 48453U 21040AB  22029.53732395 -.00000162  00000-0  80351-5 0  9995","OBJECT_TYPE":"PAYLOAD","MEAN_MOTION":"15.06401317","BSTAR":"0.00000803510000","FILE":"3286774","ELEMENT_SET_NO":"999","OBJECT_ID":"2021-040AB","SITE":"AFETR","REF_FRAME":"TEME","SEMIMAJOR_AXIS":"6925.345","OBJECT_NAME":"STARLINK-2620","GP_ID":"194859336","LAUNCH_DATE":"2021-05-09","PERIAPSIS":"546.169","MEAN_ELEMENT_THEORY":"SGP4","INCLINATION":"53.0551","MEAN_ANOMALY":"287.2277","PERIOD":"95.592","DECAY_DATE":null,"MEAN_MOTION_DDOT":"0.0000000000000","EPHEMERIS_TYPE":"0","TLE_LINE2":"2 48453  53.0551  76.0522 0001502  72.8877 287.2277 15.06401317 41800","NORAD_CAT_ID":"48453"},{"ARG_OF_PERICENTER":"83.9772","TIME_SYSTEM":"UTC","REV_AT_EPOCH":"4053","RCS_SIZE":"LARGE","RA_OF_ASC_NODE":"75.7806","CENTER_NAME":"EARTH","COUNTRY_CODE":"US","MEAN_MOTION_DOT":"0.00001434","ECCENTRICITY":"0.00013400","APOAPSIS":"548.131","CLASSIFICATION_TYPE":"U","EPOCH":"2022-01-29T14:23:58.303104","TLE_LINE2":"2 48454  53.0564  75.7806 0001340  83.9772 276.1370 15.06403557 40531","EPHEMERIS_TYPE":"0","NORAD_CAT_ID":"48454","MEAN_ANOMALY":"276.1370","PERIOD":"95.592","DECAY_DATE":null,"MEAN_ELEMENT_THEORY":"SGP4","PERIAPSIS":"546.275","INCLINATION":"53.0564","MEAN_MOTION_DDOT":"0.0000000000000","SITE":"AFETR","SEMIMAJOR_AXIS":"6925.338","OBJECT_NAME":"STARLINK-2654","REF_FRAME":"TEME","GP_ID":"194913472","LAUNCH_DATE":"2021-05-09","FILE":"3287083","BSTAR":"0.00011510000000","TLE_LINE1":"1 48454U 21040AC  22029.59998036  .00001434  00000-0  11510-3 0  9999","MEAN_MOTION":"15.06403557","OBJECT_TYPE":"PAYLOAD","OBJECT_ID":"2021-040AC","ELEMENT_SET_NO":"999"},{"OBJECT_ID":"2021-040AD","ELEMENT_SET_NO":"999","BSTAR":"0.00004015200000","FILE":"3286774","TLE_LINE1":"1 48455U 21040AD  22029.46361032  .00000317  00000-0  40152-4 0  9990","OBJECT_TYPE":"PAYLOAD","MEAN_MOTION":"15.06399209","GP_ID":"194859613","LAUNCH_DATE":"2021-05-09","SITE":"AFETR","SEMIMAJOR_AXIS":"6925.351","REF_FRAME":"TEME","OBJECT_NAME":"STARLINK-2497","MEAN_MOTION_DDOT":"0.0000000000000","PERIOD":"95.592","MEAN_ANOMALY":"284.1567","DECAY_DATE":null,"PERIAPSIS":"546.170","MEAN_ELEMENT_THEORY":"SGP4","INCLINATION":"53.0544","TLE_LINE2":"2 48455  53.0544  76.3865 0001511  75.9590 284.1567 15.06399209 41111","EPHEMERIS_TYPE":"0","NORAD_CAT_ID":"48455","EPOCH":"2022-01-29T11:07:35.931648","ECCENTRICITY":"0.00015110","APOAPSIS":"548.262","CLASSIFICATION_TYPE":"U","MEAN_MOTION_DOT":"0.00000317","COUNTRY_CODE":"US","RA_OF_ASC_NODE":"76.3865","CENTER_NAME":"EARTH","ARG_OF_PERICENTER":"75.9590","TIME_SYSTEM":"UTC","REV_AT_EPOCH":"4111","RCS_SIZE":"LARGE"},{"EPHEMERIS_TYPE":"0","TLE_LINE2":"2 48456  53.0550  74.6220 0001474  60.7878 299.3258 15.06395344 40563","NORAD_CAT_ID":"48456","MEAN_MOTION_DDOT":"0.0000000000000","PERIOD":"95.592","MEAN_ANOMALY":"299.3258","DECAY_DATE":null,"PERIAPSIS":"546.207","MEAN_ELEMENT_THEORY":"SGP4","INCLINATION":"53.0550","GP_ID":"194914474","LAUNCH_DATE":"2021-05-09","SITE":"AFETR","SEMIMAJOR_AXIS":"6925.363","REF_FRAME":"TEME","OBJECT_NAME":"STARLINK-2508","OBJECT_ID":"2021-040AE","ELEMENT_SET_NO":"999","BSTAR":"0.00017261000000","FILE":"3287083","TLE_LINE1":"1 48456U 21040AE  22029.85801458  .00002290  00000-0  17261-3 0  9991","OBJECT_TYPE":"PAYLOAD","MEAN_MOTION":"15.06395344","ARG_OF_PERICENTER":"60.7878","TIME_SYSTEM":"UTC","REV_AT_EPOCH":"4056","RCS_SIZE":"LARGE","RA_OF_ASC_NODE":"74.6220","CENTER_NAME":"EARTH","MEAN_MOTION_DOT":"0.00002290","COUNTRY_CODE":"US","EPOCH":"2022-01-29T20:35:32.459712","ECCENTRICITY":"0.00014740","APOAPSIS":"548.249","CLASSIFICATION_TYPE":"U"},{"PERIAPSIS":"546.245","MEAN_ELEMENT_THEORY":"SGP4","INCLINATION":"53.0557","PERIOD":"95.593","MEAN_ANOMALY":"283.2986","DECAY_DATE":null,"MEAN_MOTION_DDOT":"0.0000000000000","EPHEMERIS_TYPE":"0","TLE_LINE2":"2 48458  53.0557  79.6078 0001426  76.8162 283.2986 15.06393688 41211","NORAD_CAT_ID":"48458","TLE_LINE1":"1 48458U 21040AG  22029.86212926 -.00000512  00000-0 -15462-4 0  9999","OBJECT_TYPE":"PAYLOAD","MEAN_MOTION":"15.06393688","FILE":"3287083","BSTAR":"-0.00001546200000","ELEMENT_SET_NO":"999","OBJECT_ID":"2021-040AG","SITE":"AFETR","SEMIMAJOR_AXIS":"6925.368","OBJECT_NAME":"STARLINK-2698","REF_FRAME":"TEME","GP_ID":"194912722","LAUNCH_DATE":"2021-05-09","CENTER_NAME":"EARTH","RA_OF_ASC_NODE":"79.6078","REV_AT_EPOCH":"4121","RCS_SIZE":"LARGE","ARG_OF_PERICENTER":"76.8162","TIME_SYSTEM":"UTC","CLASSIFICATION_TYPE":"U","ECCENTRICITY":"0.00014260","APOAPSIS":"548.220","EPOCH":"2022-01-29T20:41:27.968064","COUNTRY_CODE":"US","MEAN_MOTION_DOT":"-0.00000512"}];
